CCSDS_OMM_VERS = 2.0
CREATION_DATE  = 
ORIGINATOR     = 

OBJECT_NAME    = SL-14 R/B
OBJECT_ID      = 1986-046B
CENTER_NAME    = EARTH
REF_FRAME      = TEME
TIME_SYSTEM    = UTC
MEAN_ELEMENT_THEORY = SGP/SGP4

EPOCH          = 2026-02-19T13:17:46.440672
MEAN_MOTION    = 14.85571749
ECCENTRICITY   = .00215887
INCLINATION    = 82.4797
RA_OF_ASC_NODE = 97.3222
ARG_OF_PERICENTER = 289.0905
MEAN_ANOMALY   = 70.7973

EPHEMERIS_TYPE = 0
CLASSIFICATION_TYPE = U
NORAD_CAT_ID   = 16792
ELEMENT_SET_NO = 999
REV_AT_EPOCH   = 12371
BSTAR          = .44057658E-4
MEAN_MOTION_DOT = .406E-5
MEAN_MOTION_DDOT = 0

CCSDS_OMM_VERS = 2.0
CREATION_DATE  = 
ORIGINATOR     = 

OBJECT_NAME    = SL-14 R/B
OBJECT_ID      = 1986-055B
CENTER_NAME    = EARTH
REF_FRAME      = TEME
TIME_SYSTEM    = UTC
MEAN_ELEMENT_THEORY = SGP/SGP4

EPOCH          = 2026-02-19T08:22:26.212800
MEAN_MOTION    = 14.85623476
ECCENTRICITY   = .00197241
INCLINATION    = 82.5230
RA_OF_ASC_NODE = 143.9091
ARG_OF_PERICENTER = 36.7817
MEAN_ANOMALY   = 28.5394

EPHEMERIS_TYPE = 0
CLASSIFICATION_TYPE = U
NORAD_CAT_ID   = 16882
ELEMENT_SET_NO = 999
REV_AT_EPOCH   = 11664
BSTAR          = .53853938E-4
MEAN_MOTION_DOT = .492E-5
MEAN_MOTION_DDOT = 0

CCSDS_OMM_VERS = 2.0
CREATION_DATE  = 
ORIGINATOR     = 

OBJECT_NAME    = AJISAI (EGS)
OBJECT_ID      = 1986-061A
CENTER_NAME    = EARTH
REF_FRAME      = TEME
TIME_SYSTEM    = UTC
MEAN_ELEMENT_THEORY = SGP/SGP4

EPOCH          = 2026-02-19T13:45:01.048320
MEAN_MOTION    = 12.44515354
ECCENTRICITY   = .00112361
INCLINATION    = 50.0084
RA_OF_ASC_NODE = 149.0570
ARG_OF_PERICENTER = 240.2954
MEAN_ANOMALY   = 219.5403

EPHEMERIS_TYPE = 0
CLASSIFICATION_TYPE = U
NORAD_CAT_ID   = 16908
ELEMENT_SET_NO = 999
REV_AT_EPOCH   = 46574
BSTAR          = .12700882E-3
MEAN_MOTION_DOT = -.79E-6
MEAN_MOTION_DDOT = 0

CCSDS_OMM_VERS = 2.0
CREATION_DATE  = 
ORIGINATOR     = 

OBJECT_NAME    = COSMOS 1812
OBJECT_ID      = 1987-003A
CENTER_NAME    = EARTH
REF_FRAME      = TEME
TIME_SYSTEM    = UTC
MEAN_ELEMENT_THEORY = SGP/SGP4

EPOCH          = 2026-02-19T13:37:44.760288
MEAN_MOTION    = 16.02916815
ECCENTRICITY   = .0003757
INCLINATION    = 82.4738
RA_OF_ASC_NODE = 216.3134
ARG_OF_PERICENTER = 297.5289
MEAN_ANOMALY   = 62.5608

EPHEMERIS_TYPE = 0
CLASSIFICATION_TYPE = U
NORAD_CAT_ID   = 17295
ELEMENT_SET_NO = 999
REV_AT_EPOCH   = 14156
BSTAR          = .7220696E-3
MEAN_MOTION_DOT = .433015E-2
MEAN_MOTION_DDOT = .82212547E-4

CCSDS_OMM_VERS = 2.0
CREATION_DATE  = 
ORIGINATOR     = 

OBJECT_NAME    = SL-14 R/B
OBJECT_ID      = 1987-024B
CENTER_NAME    = EARTH
REF_FRAME      = TEME
TIME_SYSTEM    = UTC
MEAN_ELEMENT_THEORY = SGP/SGP4

EPOCH          = 2026-02-19T12:38:26.968128
MEAN_MOTION    = 14.86114032
ECCENTRICITY   = .00172541
INCLINATION    = 82.5272
RA_OF_ASC_NODE = 109.8369
ARG_OF_PERICENTER = 324.9660
MEAN_ANOMALY   = 35.0420

EPHEMERIS_TYPE = 0
CLASSIFICATION_TYPE = U
NORAD_CAT_ID   = 17567
ELEMENT_SET_NO = 999
REV_AT_EPOCH   = 8543
BSTAR          = .44431705E-4
MEAN_MOTION_DOT = .414E-5
MEAN_MOTION_DDOT = 0

CCSDS_OMM_VERS = 2.0
CREATION_DATE  = 
ORIGINATOR     = 

OBJECT_NAME    = COSMOS 1833
OBJECT_ID      = 1987-027A
CENTER_NAME    = EARTH
REF_FRAME      = TEME
TIME_SYSTEM    = UTC
MEAN_ELEMENT_THEORY = SGP/SGP4

EPOCH          = 2026-02-19T07:31:19.152768
MEAN_MOTION    = 14.13057314
ECCENTRICITY   = .00248495
INCLINATION    = 70.9231
RA_OF_ASC_NODE = 4.6372
ARG_OF_PERICENTER = 239.6396
MEAN_ANOMALY   = 120.2268

EPHEMERIS_TYPE = 0
CLASSIFICATION_TYPE = U
NORAD_CAT_ID   = 17589
ELEMENT_SET_NO = 999
REV_AT_EPOCH   = 772
BSTAR          = -.8997947E-5
MEAN_MOTION_DOT = -.65E-6
MEAN_MOTION_DDOT = 0

CCSDS_OMM_VERS = 2.0
CREATION_DATE  = 
ORIGINATOR     = 

OBJECT_NAME    = SL-16 R/B
OBJECT_ID      = 1987-027B
CENTER_NAME    = EARTH
REF_FRAME      = TEME
TIME_SYSTEM    = UTC
MEAN_ELEMENT_THEORY = SGP/SGP4

EPOCH          = 2026-02-19T03:05:08.567232
MEAN_MOTION    = 14.17164405
ECCENTRICITY   = .00044583
INCLINATION    = 71.0040
RA_OF_ASC_NODE = 315.6082
ARG_OF_PERICENTER = 176.1397
MEAN_ANOMALY   = 183.9762

EPHEMERIS_TYPE = 0
CLASSIFICATION_TYPE = U
NORAD_CAT_ID   = 17590
ELEMENT_SET_NO = 999
REV_AT_EPOCH   = 1271
BSTAR          = .15264013E-3
MEAN_MOTION_DOT = .26E-5
MEAN_MOTION_DDOT = 0

CCSDS_OMM_VERS = 2.0
CREATION_DATE  = 
ORIGINATOR     = 

OBJECT_NAME    = SL-14 R/B
OBJECT_ID      = 1987-038B
CENTER_NAME    = EARTH
REF_FRAME      = TEME
TIME_SYSTEM    = UTC
MEAN_ELEMENT_THEORY = SGP/SGP4

EPOCH          = 2026-02-19T04:12:41.815008
MEAN_MOTION    = 14.85351118
ECCENTRICITY   = .00181064
INCLINATION    = 82.5034
RA_OF_ASC_NODE = 314.2462
ARG_OF_PERICENTER = 222.6820
MEAN_ANOMALY   = 137.2990

EPHEMERIS_TYPE = 0
CLASSIFICATION_TYPE = U
NORAD_CAT_ID   = 17912
ELEMENT_SET_NO = 999
REV_AT_EPOCH   = 7648
BSTAR          = .46783008E-4
MEAN_MOTION_DOT = .427E-5
MEAN_MOTION_DDOT = 0

CCSDS_OMM_VERS = 2.0
CREATION_DATE  = 
ORIGINATOR     = 

OBJECT_NAME    = COSMOS 1844
OBJECT_ID      = 1987-041A
CENTER_NAME    = EARTH
REF_FRAME      = TEME
TIME_SYSTEM    = UTC
MEAN_ELEMENT_THEORY = SGP/SGP4

EPOCH          = 2026-02-19T13:55:31.150560
MEAN_MOTION    = 14.14550312
ECCENTRICITY   = .00291076
INCLINATION    = 70.8982
RA_OF_ASC_NODE = 72.3741
ARG_OF_PERICENTER = 46.5932
MEAN_ANOMALY   = 313.7605

EPHEMERIS_TYPE = 0
CLASSIFICATION_TYPE = U
NORAD_CAT_ID   = 17973
ELEMENT_SET_NO = 999
REV_AT_EPOCH   = 102
BSTAR          = .15473667E-3
MEAN_MOTION_DOT = .25E-5
MEAN_MOTION_DDOT = 0

CCSDS_OMM_VERS = 2.0
CREATION_DATE  = 
ORIGINATOR     = 

OBJECT_NAME    = SL-14 R/B
OBJECT_ID      = 1987-055B
CENTER_NAME    = EARTH
REF_FRAME      = TEME
TIME_SYSTEM    = UTC
MEAN_ELEMENT_THEORY = SGP/SGP4

EPOCH          = 2026-02-19T08:35:08.755872
MEAN_MOTION    = 14.85605066
ECCENTRICITY   = .00222645
INCLINATION    = 82.5014
RA_OF_ASC_NODE = 6.3044
ARG_OF_PERICENTER = 75.1784
MEAN_ANOMALY   = 285.1897

EPHEMERIS_TYPE = 0
CLASSIFICATION_TYPE = U
NORAD_CAT_ID   = 18153
ELEMENT_SET_NO = 999
REV_AT_EPOCH   = 6721
BSTAR          = .59278025E-4
MEAN_MOTION_DOT = .54E-5
MEAN_MOTION_DDOT = 0

CCSDS_OMM_VERS = 2.0
CREATION_DATE  = 
ORIGINATOR     = 

OBJECT_NAME    = COSMOS 1867
OBJECT_ID      = 1987-060A
CENTER_NAME    = EARTH
REF_FRAME      = TEME
TIME_SYSTEM    = UTC
MEAN_ELEMENT_THEORY = SGP/SGP4

EPOCH          = 2026-02-19T06:39:14.055264
MEAN_MOTION    = 14.31499972
ECCENTRICITY   = .0014227
INCLINATION    = 65.0125
RA_OF_ASC_NODE = 358.2665
ARG_OF_PERICENTER = 277.5381
MEAN_ANOMALY   = 82.4087

EPHEMERIS_TYPE = 0
CLASSIFICATION_TYPE = U
NORAD_CAT_ID   = 18187
ELEMENT_SET_NO = 999
REV_AT_EPOCH   = 1730
BSTAR          = .30914E-4
MEAN_MOTION_DOT = -.18E-6
MEAN_MOTION_DDOT = 0

CCSDS_OMM_VERS = 2.0
CREATION_DATE  = 
ORIGINATOR     = 

OBJECT_NAME    = SL-14 R/B
OBJECT_ID      = 1988-001B
CENTER_NAME    = EARTH
REF_FRAME      = TEME
TIME_SYSTEM    = UTC
MEAN_ELEMENT_THEORY = SGP/SGP4

EPOCH          = 2026-02-19T13:17:30.990624
MEAN_MOTION    = 14.85503897
ECCENTRICITY   = .00167825
INCLINATION    = 82.5117
RA_OF_ASC_NODE = 212.4161
ARG_OF_PERICENTER = 300.9233
MEAN_ANOMALY   = 59.0333

EPHEMERIS_TYPE = 0
CLASSIFICATION_TYPE = U
NORAD_CAT_ID   = 18749
ELEMENT_SET_NO = 999
REV_AT_EPOCH   = 3933
BSTAR          = .53204119E-4
MEAN_MOTION_DOT = .484E-5
MEAN_MOTION_DDOT = 0

