SL-14 R/B               
1 16792U 86046B   26050.55400973  .00000406  00000+0  44058-4 0  9999
2 16792  82.4797  97.3222 0021588 289.0905  70.7973 14.85571749123714
SL-14 R/B               
1 16882U 86055B   26050.34891450  .00000492  00000+0  53854-4 0  9999
2 16882  82.5230 143.9091 0019724  36.7817  28.5394 14.85623476116644
AJISAI (EGS)            
1 16908U 86061A   26050.57292880 -.00000079  00000+0  12701-3 0  9999
2 16908  50.0084 149.0570 0011236 240.2954 219.5403 12.44515354465742
COSMOS 1812             
1 17295U 87003A   26050.56787917  .00433015  82213-4  72207-3 0  9992
2 17295  82.4738 216.3134 0003757 297.5289  62.5608 16.02916815141565
SL-14 R/B               
1 17567U 87024B   26050.52670102  .00000414  00000+0  44432-4 0  9992
2 17567  82.5272 109.8369 0017254 324.9660  35.0420 14.86114032 85433
COSMOS 1833             
1 17589U 87027A   26050.31341612 -.00000065  00000+0 -89979-5 0  9997
2 17589  70.9231   4.6372 0024849 239.6396 120.2268 14.13057314  7727
SL-16 R/B               
1 17590U 87027B   26050.12857138  .00000260  00000+0  15264-3 0  9992
2 17590  71.0040 315.6082 0004458 176.1397 183.9762 14.17164405 12716
SL-14 R/B               
1 17912U 87038B   26050.17548397  .00000427  00000+0  46783-4 0  9997
2 17912  82.5034 314.2462 0018106 222.6820 137.2990 14.85351118 76487
COSMOS 1844             
1 17973U 87041A   26050.58022165  .00000250  00000+0  15474-3 0  9999
2 17973  70.8982  72.3741 0029107  46.5932 313.7605 14.14550312  1029
SL-14 R/B               
1 18153U 87055B   26050.35774023  .00000540  00000+0  59278-4 0  9990
2 18153  82.5014   6.3044 0022264  75.1784 285.1897 14.85605066 67212
COSMOS 1867             
1 18187U 87060A   26050.27724601 -.00000018  00000+0  30914-4 0  9998
2 18187  65.0125 358.2665 0014227 277.5381  82.4087 14.31499972 17309
SL-14 R/B               
1 18749U 88001B   26050.55383091  .00000484  00000+0  53204-4 0  9996
2 18749  82.5117 212.4161 0016782 300.9233  59.0333 14.85503897 39337
